STARLINK-3538           
1 51996U 22025AS  26052.10130970  .00000376  00000+0  41694-4 0  9990
2 51996  53.2163  93.5884 0001327  86.3943 273.7201 15.08841382218413
STARLINK-3589           
1 51997U 22025AT  26052.11234651 -.00000057  00000+0  14485-4 0  9998
2 51997  53.2176  93.5422 0001596 104.7438 255.3731 15.08842271218409
STARLINK-3618           
1 51998U 22025AU  26052.27058956 -.00003483  00000+0 -20087-3 0  9999
2 51998  53.2167  92.8266 0001216  95.8522 264.2609 15.08839829218443
STARLINK-3653           
1 52000U 22025AW  26052.25585669  .00000147  00000+0  27342-4 0  9992
2 52000  53.2165  92.8072 0000846 100.8104 259.2984 15.08839844218449
STARLINK-3659           
1 52001U 22025AX  26052.26787156 -.00000721  00000+0 -27212-4 0  9995
2 52001  53.2167  92.8505 0001344  90.3159 269.7988 15.08827769218443
STARLINK-3668           
1 52002U 22025AY  26052.26691028 -.00001510  00000+0 -76793-4 0  9993
2 52002  53.2164  92.8815 0001187  77.3359 282.7766 15.08834408218444
YAOGAN-34 02            
1 52084U 22027A   26052.30044147 -.00000049  00000+0  69341-4 0  9990
2 52084  63.3967 138.8268 0041658 351.3418   8.6885 13.45428663193325
STARLINK-3712           
1 52090U 22029C   26051.59071521 -.00002026  00000+0 -10929-3 0  9990
2 52090  53.2165 165.8800 0001108 106.0166 254.0948 15.08833520218073
STARLINK-3716           
1 52092U 22029E   26051.52814826  .00000867  00000+0  72582-4 0  9991
2 52092  53.2194 166.1530 0001209  88.4359 271.6772 15.08831333218069
STARLINK-3673           
1 52093U 22029F   26052.31294698  .00000547  00000+0  52453-4 0  9999
2 52093  53.2158 162.6515 0001275  65.2909 294.8216 15.08836202218184
STARLINK-3714           
1 52094U 22029G   26051.58702982  .00000018  00000+0  19200-4 0  9994
2 52094  53.2169 165.8999 0001121  80.4034 279.7085 15.08840610218078
STARLINK-3701           
1 52095U 22029H   26051.57599877  .00013099  00000+0  83885-3 0  9993
2 52095  53.2174 165.9510 0001466  67.3578 292.7569 15.08870457218078
STARLINK-3717           
1 52096U 22029J   26052.28347021 -.00000188  00000+0  62852-5 0  9994
2 52096  53.2165 152.7708 0001389 108.9374 251.1769 15.08839330218304
STARLINK-3665           
1 52098U 22029L   26052.30830954 -.00000320  00000+0 -20130-5 0  9993
2 52098  53.2170 162.6610 0001176  74.2713 285.8409 15.08841172218188
STARLINK-3702           
1 52100U 22029N   26051.57231210 -.00000199  00000+0  56014-5 0  9998
2 52100  53.2164 165.9632 0001085  80.7432 279.3683 15.08838375218075
STARLINK-3703           
1 52101U 22029P   26052.31201328 -.00000398  00000+0 -68905-5 0  9993
2 52101  53.2149 162.8345 0001438 107.5972 252.5178 15.08838875218173
STARLINK-3709           
1 52102U 22029Q   26052.23658270  .00000384  00000+0  42201-4 0  9990
2 52102  53.2169 152.9833 0001266  89.0837 271.0300 15.08839728218307
STARLINK-3705           
1 52103U 22029R   26052.27610867 -.00001399  00000+0 -69823-4 0  9993
2 52103  53.2170 152.8074 0001300  71.8502 288.2632 15.08840386218303
STARLINK-3706           
1 52105U 22029T   26052.26970393  .00000849  00000+0  71388-4 0  9993
2 52105  53.2173 152.8337 0001083  87.2834 272.8283 15.08842229218306
STARLINK-3670           
1 52106U 22029U   26052.28990878  .00000717  00000+0  63138-4 0  9994
2 52106  53.2173 162.7417 0001108  92.2348 267.8771 15.08840514218176
STARLINK-3658           
1 52107U 22029V   26052.26507153  .00000654  00000+0  59175-4 0  9999
2 52107  53.2170 152.8530 0001089  87.5889 272.5228 15.08836096218300
STARLINK-3698           
1 52108U 22029W   26051.54378652  .00000572  00000+0  54011-4 0  9993
2 52108  53.2192 156.0786 0001870 133.9617 226.1530 15.08852326218199
STARLINK-3687           
1 52110U 22029Y   26052.26874969  .00000204  00000+0  30928-4 0  9991
2 52110  53.2174 152.8385 0001290  84.2684 275.8456 15.08843070218306
STARLINK-3708           
1 52111U 22029Z   26051.52539286 -.00000142  00000+0  91470-5 0  9992
2 52111  53.2172 156.1726 0001307  87.1317 272.9825 15.08834948218194
STARLINK-3734           
1 52112U 22029AA  26051.79769862  .00001704  00000+0  12507-3 0  9993
2 52112  53.2169 154.9484 0001169 106.2964 253.8157 15.08848341218238
STARLINK-3736           
1 52113U 22029AB  26051.51803434 -.00000694  00000+0 -25501-4 0  9996
2 52113  53.2169 156.2061 0001081  98.6333 261.4782 15.08844480218196
STARLINK-3737           
1 52114U 22029AC  26052.25771022  .00000741  00000+0  64663-4 0  9999
2 52114  53.2175 152.8854 0001285  93.8041 266.3098 15.08839380218305
STARLINK-3685           
1 52115U 22029AD  26051.57691611 -.00000841  00000+0 -34779-4 0  9997
2 52115  53.2159 155.9426 0001317  98.2947 261.8195 15.08827264218202
STARLINK-3735           
1 52116U 22029AE  26052.25035349  .00000473  00000+0  47824-4 0  9998
2 52116  53.2170 152.9185 0001156  94.6072 265.5052 15.08836731218308
STARLINK-3738           
1 52117U 22029AF  26052.29819146 -.00000575  00000+0 -18036-4 0  9996
2 52117  53.2170 152.7057 0001154 101.8088 258.3033 15.08836547218327
STARLINK-3743           
1 52118U 22029AG  26052.24299754 -.00001224  00000+0 -58833-4 0  9990
2 52118  53.2176 152.9543 0001589  69.4829 290.6334 15.08845655218301
STARLINK-3558           
1 52119U 22029AH  26052.29083052 -.00000314  00000+0 -16685-5 0  9997
2 52119  53.2172 152.7382 0001124  97.7710 262.3409 15.08835865218317
STARLINK-3534           
1 52120U 22029AJ  26052.30187232  .00000023  00000+0  19521-4 0  9992
2 52120  53.2175 152.6888 0001107  88.6861 271.4258 15.08835448218320
STARLINK-3678           
1 52121U 22029AK  26052.27335333 -.00000562  00000+0 -17260-4 0  9994
2 52121  53.2186 142.8159 0001191  97.8389 262.2738 15.08835016218440
STARLINK-3726           
1 52122U 22029AL  26052.29450683  .00000176  00000+0  29143-4 0  9995
2 52122  53.2179 152.7234 0001306  94.7981 265.3160 15.08839049218318
STARLINK-3725           
1 52123U 22029AM  26051.51988444 -.00000345  00000+0 -36021-5 0  9995
2 52123  53.2173 146.0202 0001232  92.8303 267.2830 15.08840258218341
STARLINK-3727           
1 52125U 22029AP  26052.26231796  .00000875  00000+0  73052-4 0  9991
2 52125  53.2179 142.8602 0001395 121.0492 239.0638 15.08842444218455
STARLINK-3732           
1 52126U 22029AQ  26052.26967169  .00000206  00000+0  31051-4 0  9993
2 52126  53.2173 142.8334 0001250  91.5762 268.5374 15.08836728218444
STARLINK-3715           
1 52127U 22029AR  26052.25862620  .00000295  00000+0  36643-4 0  9999
2 52127  53.2186 142.8861 0001443 102.5726 257.5428 15.08841774218446
STARLINK-3661           
1 52129U 22029AT  26051.52262745 -.00002432  00000+0 -13475-3 0  9996
2 52129  53.2177 146.1892 0001170  79.3221 280.7902 15.08847682218345
STARLINK-3711           
1 52131U 22029AV  26051.41347099  .00015789  00000+0  89653-3 0  9991
2 52131  53.2156 145.5685 0001063 195.9650 164.1311 15.13098606218349
STARLINK-3718           
1 52132U 22029AW  26052.25495132 -.00000174  00000+0  71592-5 0  9995
2 52132  53.2175 142.9025 0001178  80.9371 279.1755 15.08838726218450
STARLINK-3707           
1 52133U 22029AX  26052.24023047  .00000376  00000+0  41682-4 0  9996
2 52133  53.2175 142.9660 0001324  76.8127 283.3012 15.08840412218450
STARLINK-3721           
1 52134U 22029AY  26052.24391094 -.00000245  00000+0  26927-5 0  9999
2 52134  53.2179 142.9484 0001234  82.5135 277.5997 15.08841163218453
STARLINK-3729           
1 52135U 22029AZ  26052.23014961 -.00000070  00000+0  13689-4 0  9990
2 52135  53.2181 143.0237 0001156  92.0143 268.0982 15.08839231218455
STARLINK-3720           
1 52136U 22029BA  26051.57414965  .00000792  00000+0  67828-4 0  9999
2 52136  53.2169 145.9533 0001379  82.2815 277.8334 15.08839395218355
STARLINK-3733           
1 52137U 22029BB  26051.43063347  .00000134  00000+0  26518-4 0  9990
2 52137  53.2168 146.5967 0001144  92.2612 267.8512 15.08834857218332
STARLINK-3723           
1 52138U 22029BC  26051.57047397 -.00000083  00000+0  12867-4 0  9999
2 52138  53.2179 145.9700 0000993  85.4760 274.6346 15.08835163218356
STARLINK-3730           
1 52139U 22029BD  26052.27978878  .00000451  00000+0  46399-4 0  9990
2 52139  53.2176 152.7886 0000770  59.9416 300.1653 15.08854901218315
STARLINK-3682           
1 52140U 22029BE  26051.42694908 -.00000306  00000+0 -11331-5 0  9997
2 52140  53.2167 146.6137 0001333 108.1477 251.9661 15.08836935218339
MERIDIAN 10             
1 52145U 22030A   26051.82968870  .00000318  00000+0  00000+0 0  9996
2 52145  62.6614 153.2069 6755374 272.9688  17.8553  2.00607415 28700
TK-2                    
1 52150U 22031A   26052.30686334  .00002999  00000+0  22836-3 0  9991
2 52150  97.8339 247.1054 0016167 152.2620 207.9470 15.02778108213055
PUJIANG 2 (PJ-2)        
1 52151U 22031B   26052.25763446  .00000851  00000+0  84928-4 0  9992
2 52151  97.8574 237.6851 0010816 223.1223 136.9151 14.94154463212483
TIANPING 2A             
1 52153U 22032A   26052.24556656  .00001222  00000+0  11147-3 0  9992
2 52153  97.6014  93.2692 0009929 201.7892 158.2909 14.96844635212496
TIANPING 2B             
1 52155U 22032C   26052.26833316  .00002402  00000+0  19133-3 0  9991
2 52155  97.6067 100.0007 0019083 189.7736 170.3120 15.01158529212887
TIANPING 2C             
1 52156U 22032D   26052.23549076  .00004920  00000+0  30669-3 0  9990
2 52156  97.5982 105.5581 0006598 182.6371 177.4825 15.09995029213348
OMNI-L1                 
1 52157U 22033A   26052.22380388  .00002124  00000+0  27264-3 0  9991
2 52157  97.8464 133.6686 0004055 310.2735  49.8123 14.82238094210278
GNOMES-3                
1 52158U 22033B   26052.19568784  .00001843  00000+0  22447-3 0  9991
2 52158  97.8314 130.5823 0010401 350.4411   9.6604 14.84575449210123
ENMAP                   
1 52159U 22033C   26052.22861683  .00000329  00000+0  56395-4 0  9998
2 52159  97.9792 136.1275 0001114  75.9429 284.1904 14.74945872209566
